[
    {
        "CCSDS_OMM_VERS": "3.0",
        "COMMENT": "GENERATED VIA SPACE-TRACK.ORG API",
        "CREATION_DATE": "2025-04-14T03:05:54",
        "ORIGINATOR": "18 SPCS",
        "OBJECT_NAME": "NAVSTAR 69 (USA 248)",
        "OBJECT_ID": "2014-008A",
        "CENTER_NAME": "EARTH",
        "REF_FRAME": "TEME",
        "TIME_SYSTEM": "UTC",
        "MEAN_ELEMENT_THEORY": "SGP4",
        "EPOCH": "2025-04-12T21:50:28.707072",
        "MEAN_MOTION": "2.00559683",
        "ECCENTRICITY": "0.00776000",
        "INCLINATION": "53.6085",
        "RA_OF_ASC_NODE": "166.8614",
        "ARG_OF_PERICENTER": "224.1413",
        "MEAN_ANOMALY": "135.3175",
        "EPHEMERIS_TYPE": "0",
        "CLASSIFICATION_TYPE": "U",
        "NORAD_CAT_ID": "39533",
        "ELEMENT_SET_NO": "999",
        "REV_AT_EPOCH": "8105",
        "BSTAR": "0.00000000000000",
        "MEAN_MOTION_DOT": "0.00000044",
        "MEAN_MOTION_DDOT": "0.0000000000000",
        "SEMIMAJOR_AXIS": "26560.694",
        "PERIOD": "717.991",
        "APOAPSIS": "20388.670",
        "PERIAPSIS": "19976.448",
        "OBJECT_TYPE": "PAYLOAD",
        "RCS_SIZE": "LARGE",
        "COUNTRY_CODE": "US",
        "LAUNCH_DATE": "2014-02-21",
        "SITE": "AFETR",
        "DECAY_DATE": null,
        "FILE": "4701263",
        "GP_ID": "285536712",
        "TLE_LINE0": "0 NAVSTAR 69 (USA 248)",
        "TLE_LINE1": "1 39533U 14008A   25102.91005448  .00000044  00000-0  00000-0 0  9995",
        "TLE_LINE2": "2 39533  53.6085 166.8614 0077600 224.1413 135.3175  2.00559683 81058"
    }
]